CCSDS_OMM_VERS = 2.0
CREATION_DATE  = 
ORIGINATOR     = 

OBJECT_NAME    = CORAL
OBJECT_ID      = 1998-067YA
CENTER_NAME    = EARTH
REF_FRAME      = TEME
TIME_SYSTEM    = UTC
MEAN_ELEMENT_THEORY = SGP/SGP4

EPOCH          = 2026-03-28T17:05:06.868320
MEAN_MOTION    = 15.57540134
ECCENTRICITY   = .0012717
INCLINATION    = 51.6303
RA_OF_ASC_NODE = 336.4340
ARG_OF_PERICENTER = 244.5038
MEAN_ANOMALY   = 115.4639

EPHEMERIS_TYPE = 0
CLASSIFICATION_TYPE = U
NORAD_CAT_ID   = 67684
ELEMENT_SET_NO = 999
REV_AT_EPOCH   = 775
BSTAR          = .13026E-2
MEAN_MOTION_DOT = .98869E-3
MEAN_MOTION_DDOT = 0

CCSDS_OMM_VERS = 2.0
CREATION_DATE  = 
ORIGINATOR     = 

OBJECT_NAME    = GXIBA-1
OBJECT_ID      = 1998-067YB
CENTER_NAME    = EARTH
REF_FRAME      = TEME
TIME_SYSTEM    = UTC
MEAN_ELEMENT_THEORY = SGP/SGP4

EPOCH          = 2026-03-28T03:02:08.246976
MEAN_MOTION    = 15.53874924
ECCENTRICITY   = .00118591
INCLINATION    = 51.6320
RA_OF_ASC_NODE = 340.0239
ARG_OF_PERICENTER = 249.3772
MEAN_ANOMALY   = 110.5947

EPHEMERIS_TYPE = 0
CLASSIFICATION_TYPE = U
NORAD_CAT_ID   = 67685
ELEMENT_SET_NO = 999
REV_AT_EPOCH   = 765
BSTAR          = .71758857E-3
MEAN_MOTION_DOT = .46994E-3
MEAN_MOTION_DDOT = 0

CCSDS_OMM_VERS = 2.0
CREATION_DATE  = 
ORIGINATOR     = 

OBJECT_NAME    = UITMSAT-2
OBJECT_ID      = 1998-067YC
CENTER_NAME    = EARTH
REF_FRAME      = TEME
TIME_SYSTEM    = UTC
MEAN_ELEMENT_THEORY = SGP/SGP4

EPOCH          = 2026-03-28T02:41:42.799488
MEAN_MOTION    = 15.54802779
ECCENTRICITY   = .00090505
INCLINATION    = 51.6320
RA_OF_ASC_NODE = 339.9313
ARG_OF_PERICENTER = 220.6186
MEAN_ANOMALY   = 139.4131

EPHEMERIS_TYPE = 0
CLASSIFICATION_TYPE = U
NORAD_CAT_ID   = 67686
ELEMENT_SET_NO = 999
REV_AT_EPOCH   = 765
BSTAR          = .8622031E-3
MEAN_MOTION_DOT = .58539E-3
MEAN_MOTION_DDOT = 0

CCSDS_OMM_VERS = 2.0
CREATION_DATE  = 
ORIGINATOR     = 

OBJECT_NAME    = HMU-SAT2
OBJECT_ID      = 1998-067YD
CENTER_NAME    = EARTH
REF_FRAME      = TEME
TIME_SYSTEM    = UTC
MEAN_ELEMENT_THEORY = SGP/SGP4

EPOCH          = 2026-03-28T17:02:40.497216
MEAN_MOTION    = 15.53685811
ECCENTRICITY   = .0008606
INCLINATION    = 51.6326
RA_OF_ASC_NODE = 337.1748
ARG_OF_PERICENTER = 226.2008
MEAN_ANOMALY   = 133.8271

EPHEMERIS_TYPE = 0
CLASSIFICATION_TYPE = U
NORAD_CAT_ID   = 67687
ELEMENT_SET_NO = 999
REV_AT_EPOCH   = 766
BSTAR          = .77992E-3
MEAN_MOTION_DOT = .50719E-3
MEAN_MOTION_DDOT = 0

CCSDS_OMM_VERS = 2.0
CREATION_DATE  = 
ORIGINATOR     = 

OBJECT_NAME    = LEOPARD
OBJECT_ID      = 1998-067YE
CENTER_NAME    = EARTH
REF_FRAME      = TEME
TIME_SYSTEM    = UTC
MEAN_ELEMENT_THEORY = SGP/SGP4

EPOCH          = 2026-03-28T16:44:13.670016
MEAN_MOTION    = 15.54451538
ECCENTRICITY   = .0008791
INCLINATION    = 51.6331
RA_OF_ASC_NODE = 337.0890
ARG_OF_PERICENTER = 223.7517
MEAN_ANOMALY   = 136.2778

EPHEMERIS_TYPE = 0
CLASSIFICATION_TYPE = U
NORAD_CAT_ID   = 67688
ELEMENT_SET_NO = 999
REV_AT_EPOCH   = 766
BSTAR          = .86636E-3
MEAN_MOTION_DOT = .58058E-3
MEAN_MOTION_DDOT = 0

CCSDS_OMM_VERS = 2.0
CREATION_DATE  = 
ORIGINATOR     = 

OBJECT_NAME    = CREW DRAGON 12
OBJECT_ID      = 2026-031A
CENTER_NAME    = EARTH
REF_FRAME      = TEME
TIME_SYSTEM    = UTC
MEAN_ELEMENT_THEORY = SGP/SGP4

EPOCH          = 2026-03-28T20:59:21.130368
MEAN_MOTION    = 15.48616916
ECCENTRICITY   = .0006219
INCLINATION    = 51.6344
RA_OF_ASC_NODE = 337.5169
ARG_OF_PERICENTER = 244.1555
MEAN_ANOMALY   = 115.8792

EPHEMERIS_TYPE = 0
CLASSIFICATION_TYPE = U
NORAD_CAT_ID   = 67796
ELEMENT_SET_NO = 999
REV_AT_EPOCH   = 55926
BSTAR          = .21128E-3
MEAN_MOTION_DOT = .11057E-3
MEAN_MOTION_DDOT = 0

CCSDS_OMM_VERS = 2.0
CREATION_DATE  = 
ORIGINATOR     = 

OBJECT_NAME    = PROGRESS-MS 33
OBJECT_ID      = 2026-058A
CENTER_NAME    = EARTH
REF_FRAME      = TEME
TIME_SYSTEM    = UTC
MEAN_ELEMENT_THEORY = SGP/SGP4

EPOCH          = 2026-03-28T20:59:21.130368
MEAN_MOTION    = 15.48616916
ECCENTRICITY   = .0006219
INCLINATION    = 51.6344
RA_OF_ASC_NODE = 337.5169
ARG_OF_PERICENTER = 244.1555
MEAN_ANOMALY   = 115.8792

EPHEMERIS_TYPE = 0
CLASSIFICATION_TYPE = U
NORAD_CAT_ID   = 68319
ELEMENT_SET_NO = 999
REV_AT_EPOCH   = 77
BSTAR          = .21128E-3
MEAN_MOTION_DOT = .11057E-3
MEAN_MOTION_DDOT = 0

